{
  "type": "FeatureCollection",
  "features": [
    {
      "type": "Feature",
      "properties": {
        "norad_id": 38755,
        "name": "SPOT 6",
        "group": "resource",
        "lat": -80.56850730637143,
        "lon": -173.9694870556941,
        "alt_km": 706.0839857399405,
        "timestamp": "2025-12-27T04:40:45.156967+00:00",
        "meta_object_name": "SPOT 6",
        "meta_object_id": "2012-047A",
        "meta_epoch": "2025-12-26T22:31:38.521056",
        "meta_mean_motion": 14.58544122,
        "meta_eccentricity": 0.00012269,
        "meta_inclination": 98.1549,
        "meta_ra_of_asc_node": 65.4596,
        "meta_arg_of_pericenter": 78.9497,
        "meta_mean_anomaly": 281.184,
        "meta_ephemeris_type": 0,
        "meta_classification_type": "U",
        "meta_norad_cat_id": 38755,
        "meta_element_set_no": 999,
        "meta_rev_at_epoch": 70794,
        "meta_bstar": 5.7845524e-05,
        "meta_mean_motion_dot": 2.24e-06,
        "meta_mean_motion_ddot": 0,
        "tle_line1": "1 38755U 12047A   25360.93864029  .00000224  00000+0  57846-4 0  9990",
        "tle_line2": "2 38755  98.1549  65.4596 0001226  78.9497 281.1840 14.58544122707943"
      },
      "geometry": {
        "type": "Point",
        "coordinates": [
          -173.9694870556941,
          -80.56850730637143
        ]
      }
    },
    {
      "type": "Feature",
      "properties": {
        "norad_id": 39019,
        "name": "PLEIADES 1B",
        "group": "resource",
        "lat": 15.88429930145275,
        "lon": -104.03785288697814,
        "alt_km": 698.3301120831948,
        "timestamp": "2025-12-27T04:40:45.156977+00:00",
        "meta_object_name": "PLEIADES 1B",
        "meta_object_id": "2012-068A",
        "meta_epoch": "2025-12-26T22:59:28.690944",
        "meta_mean_motion": 14.58565211,
        "meta_eccentricity": 0.00011576,
        "meta_inclination": 98.1773,
        "meta_ra_of_asc_node": 73.3839,
        "meta_arg_of_pericenter": 87.5222,
        "meta_mean_anomaly": 272.611,
        "meta_ephemeris_type": 0,
        "meta_classification_type": "U",
        "meta_norad_cat_id": 39019,
        "meta_element_set_no": 999,
        "meta_rev_at_epoch": 69574,
        "meta_bstar": 6.6424733e-05,
        "meta_mean_motion_dot": 2.63e-06,
        "meta_mean_motion_ddot": 0,
        "tle_line1": "1 39019U 12068A   25360.95797096  .00000263  00000+0  66425-4 0  9994",
        "tle_line2": "2 39019  98.1773  73.3839 0001157  87.5222 272.6110 14.58565211695740"
      },
      "geometry": {
        "type": "Point",
        "coordinates": [
          -104.03785288697814,
          15.88429930145275
        ]
      }
    },
    {
      "type": "Feature",
      "properties": {
        "norad_id": 39030,
        "name": "GOKTURK 2",
        "group": "resource",
        "lat": 11.188240766896076,
        "lon": 23.668604675494997,
        "alt_km": 645.1448806418985,
        "timestamp": "2025-12-27T04:40:45.156987+00:00",
        "meta_object_name": "GOKTURK 2",
        "meta_object_id": "2012-073A",
        "meta_epoch": "2025-12-26T23:02:03.465312",
        "meta_mean_motion": 14.75311843,
        "meta_eccentricity": 0.00014899,
        "meta_inclination": 97.6887,
        "meta_ra_of_asc_node": 201.9139,
        "meta_arg_of_pericenter": 105.8674,
        "meta_mean_anomaly": 254.27,
        "meta_ephemeris_type": 0,
        "meta_classification_type": "U",
        "meta_norad_cat_id": 39030,
        "meta_element_set_no": 999,
        "meta_rev_at_epoch": 69911,
        "meta_bstar": 0.00014731783,
        "meta_mean_motion_dot": 9.51e-06,
        "meta_mean_motion_ddot": 0,
        "tle_line1": "1 39030U 12073A   25360.95976233  .00000951  00000+0  14732-3 0  9992",
        "tle_line2": "2 39030  97.6887 201.9139 0001489 105.8674 254.2700 14.75311843699113"
      },
      "geometry": {
        "type": "Point",
        "coordinates": [
          23.668604675494997,
          11.188240766896076
        ]
      }
    },
    {
      "type": "Feature",
      "properties": {
        "norad_id": 39084,
        "name": "LANDSAT 8",
        "group": "resource",
        "lat": -76.13532221999907,
        "lon": -146.7215199013164,
        "alt_km": 710.5410954667595,
        "timestamp": "2025-12-27T04:40:45.156998+00:00",
        "meta_object_name": "LANDSAT 8",
        "meta_object_id": "2013-008A",
        "meta_epoch": "2025-12-26T22:33:03.712320",
        "meta_mean_motion": 14.57116961,
        "meta_eccentricity": 0.00010551,
        "meta_inclination": 98.2054,
        "meta_ra_of_asc_node": 68.8023,
        "meta_arg_of_pericenter": 94.3005,
        "meta_mean_anomaly": 265.8314,
        "meta_ephemeris_type": 0,
        "meta_classification_type": "U",
        "meta_norad_cat_id": 39084,
        "meta_element_set_no": 999,
        "meta_rev_at_epoch": 67281,
        "meta_bstar": 0.00011890466,
        "meta_mean_motion_dot": 4.91e-06,
        "meta_mean_motion_ddot": 0,
        "tle_line1": "1 39084U 13008A   25360.93962630  .00000491  00000+0  11890-3 0  9995",
        "tle_line2": "2 39084  98.2054  68.8023 0001055  94.3005 265.8314 14.57116961672817"
      },
      "geometry": {
        "type": "Point",
        "coordinates": [
          -146.7215199013164,
          -76.13532221999907
        ]
      }
    },
    {
      "type": "Feature",
      "properties": {
        "norad_id": 39086,
        "name": "SARAL",
        "group": "resource",
        "lat": 58.10433326734442,
        "lon": 170.9470634267151,
        "alt_km": 774.9286048228596,
        "timestamp": "2025-12-27T04:40:45.157008+00:00",
        "meta_object_name": "SARAL",
        "meta_object_id": "2013-009A",
        "meta_epoch": "2025-12-26T23:22:33.777984",
        "meta_mean_motion": 14.32762113,
        "meta_eccentricity": 0.00029491,
        "meta_inclination": 98.5504,
        "meta_ra_of_asc_node": 184.7186,
        "meta_arg_of_pericenter": 82.0092,
        "meta_mean_anomaly": 278.1426,
        "meta_ephemeris_type": 0,
        "meta_classification_type": "U",
        "meta_norad_cat_id": 39086,
        "meta_element_set_no": 999,
        "meta_rev_at_epoch": 67094,
        "meta_bstar": 7.5241043e-05,
        "meta_mean_motion_dot": 1.61e-06,
        "meta_mean_motion_ddot": 0,
        "tle_line1": "1 39086U 13009A   25360.97400206  .00000161  00000+0  75241-4 0  9993",
        "tle_line2": "2 39086  98.5504 184.7186 0002949  82.0092 278.1426 14.32762113670945"
      },
      "geometry": {
        "type": "Point",
        "coordinates": [
          170.9470634267151,
          58.10433326734442
        ]
      }
    },
    {
      "type": "Feature",
      "properties": {
        "norad_id": 39150,
        "name": "GAOFEN-1",
        "group": "resource",
        "lat": -49.5305737969345,
        "lon": 81.00060347203384,
        "alt_km": 658.4815002351379,
        "timestamp": "2025-12-27T04:40:45.157018+00:00",
        "meta_object_name": "GAOFEN-1",
        "meta_object_id": "2013-018A",
        "meta_epoch": "2025-12-26T22:24:02.775744",
        "meta_mean_motion": 14.76503615,
        "meta_eccentricity": 0.00185682,
        "meta_inclination": 97.9305,
        "meta_ra_of_asc_node": 71.34,
        "meta_arg_of_pericenter": 100.0592,
        "meta_mean_anomaly": 260.2714,
        "meta_ephemeris_type": 0,
        "meta_classification_type": "U",
        "meta_norad_cat_id": 39150,
        "meta_element_set_no": 999,
        "meta_rev_at_epoch": 68282,
        "meta_bstar": 8.9475905e-05,
        "meta_mean_motion_dot": 5.74e-06,
        "meta_mean_motion_ddot": 0,
        "tle_line1": "1 39150U 13018A   25360.93336546  .00000574  00000+0  89476-4 0  9999",
        "tle_line2": "2 39150  97.9305  71.3400 0018568 100.0592 260.2714 14.76503615682829"
      },
      "geometry": {
        "type": "Point",
        "coordinates": [
          81.00060347203384,
          -49.5305737969345
        ]
      }
    },
    {
      "type": "Feature",
      "properties": {
        "norad_id": 39160,
        "name": "VNREDSAT 1",
        "group": "resource",
        "lat": 48.645953886179576,
        "lon": -114.92085021487176,
        "alt_km": 672.3272766323016,
        "timestamp": "2025-12-27T04:40:45.157028+00:00",
        "meta_object_name": "VNREDSAT 1",
        "meta_object_id": "2013-021B",
        "meta_epoch": "2025-12-26T23:10:01.696224",
        "meta_mean_motion": 14.64943148,
        "meta_eccentricity": 0.00011667,
        "meta_inclination": 97.935,
        "meta_ra_of_asc_node": 55.74,
        "meta_arg_of_pericenter": 84.0881,
        "meta_mean_anomaly": 276.0456,
        "meta_ephemeris_type": 0,
        "meta_classification_type": "U",
        "meta_norad_cat_id": 39160,
        "meta_element_set_no": 999,
        "meta_rev_at_epoch": 67507,
        "meta_bstar": 0.00011706211,
        "meta_mean_motion_dot": 5.81e-06,
        "meta_mean_motion_ddot": 0,
        "tle_line1": "1 39160U 13021B   25360.96529741  .00000581  00000+0  11706-3 0  9996",
        "tle_line2": "2 39160  97.9350  55.7400 0001166  84.0881 276.0456 14.64943148675077"
      },
      "geometry": {
        "type": "Point",
        "coordinates": [
          -114.92085021487176,
          48.645953886179576
        ]
      }
    }
  ]
}